{
  "norad_id": 57424,
  "name": "2023-104A",
  "history": [
    {
      "epoch": "2026-03-27T14:26:56.438304Z",
      "apogee_km": 472.06408105809805,
      "perigee_km": 460.05115066833514,
      "latitude_deg": 5.7134401027366634e-05,
      "longitude_deg": 114.28984329692614,
      "height_km": 466.18123644681134,
      "semi_major_axis_km": 6844.194615863216,
      "eccentricity": 0.0008776,
      "inclination_deg": 97.276,
      "raan_deg": 156.0595,
      "arg_perigee_deg": 60.3386,
      "mean_anomaly_deg": 299.873,
      "mean_motion_rev_day": 15.33272112
    }
  ]
}