{"fetched_at":"2026-03-28T16:33:49Z","count":6709,"tles":[{"name":"2023-104A","line1":"1 57424U 23104A   26086.60204211  .00000029  00000+0  32576-5 0  9998","line2":"2 57424  97.2760 156.0595 0008776  60.3386 299.8730 15.33272112149537","category":"Other"}]}